STARLINK-11141 [DTC]    
1 60066U 24113H   25161.24117201 -.00001482  00000+0 -73803-5 0  9994
2 60066  53.1599  94.0228 0001118  84.8025 275.3121 15.69699097 57087
STARLINK-11153 [DTC]    
1 60067U 24113J   25161.23635864  .00001579  00000+0  17887-4 0  9998
2 60067  53.1598  94.7236 0001311  39.0974 321.0139 15.69710640 57078
STARLINK-11170 [DTC]    
1 60068U 24113K   25159.25770624  .00000462  00000+0  86696-5 0  9997
2 60068  53.1598 104.4220 0001156  78.2317 281.8831 15.69705658 56450
STARLINK-11171 [DTC]    
1 60069U 24113L   25159.57115271 -.00000765  00000+0 -14554-5 0  9996
2 60069  53.1576 102.8201 0001098  87.9731 272.1413 15.69701544 56819
STARLINK-11186 [DTC]    
1 60070U 24113M   25161.53999159 -.00001067  00000+0 -39476-5 0  9998
2 60070  53.1591  93.0574 0001140  79.7495 280.3651 15.69710539 57221
STARLINK-11184 [DTC]    
1 60071U 24113N   25159.56134022  .00000554  00000+0  94371-5 0  9992
2 60071  53.1585 102.7904 0001660  95.5512 264.5695 15.69705037 56759
STARLINK-32032          
1 60077U 24113U   25161.32477383 -.00003892  00000+0 -11936-3 0  9999
2 60077  53.1586 183.9403 0000955  49.3072 310.8012 15.30199446 55931
STARLINK-31441          
1 60091U 24117A   25160.45203384 -.00000148  00000+0  71400-5 0  9994
2 60091  53.1594 226.2124 0001190  81.3069 278.8066 15.30191618 55059
STARLINK-32044          
1 60092U 24117B   25161.54233588 -.00000623  00000+0 -89203-5 0  9994
2 60092  53.1599 220.9261 0001135  85.4465 274.6665 15.30188050 55024
STARLINK-31239          
1 60093U 24117C   25161.46447279 -.00000700  00000+0 -11524-4 0  9996
2 60093  53.1596 221.8652 0001265  96.8084 263.3061 15.30193073 55153
STARLINK-32007          
1 60094U 24117D   25160.47102824  .00000199  00000+0  18835-4 0  9993
2 60094  53.1577 226.3273 0000697  45.3137 314.7920 15.30192889 55056
STARLINK-32028          
1 60095U 24117E   25161.44125341 -.00000004  00000+0  12011-4 0  9997
2 60095  53.1592 221.7198 0001266  80.0770 280.0373 15.30187685 55179
STARLINK-32016          
1 60096U 24117F   25161.46025700 -.00000275  00000+0  28403-5 0  9991
2 60096  53.1598 221.8396 0001173  91.4304 268.6831 15.30194186 55145
STARLINK-32003          
1 60097U 24117G   25160.57843708 -.00000352  00000+0  25499-6 0  9998
2 60097  53.1592 225.5755 0001323  83.7155 276.3997 15.30195925 55078
STARLINK-32026          
1 60098U 24117H   25160.45731349  .00002814  00000+0  10717-3 0  9991
2 60098  53.1599 226.2442 0001293  76.5298 283.5847 15.30179521 55057
STARLINK-31732          
1 60099U 24117J   25161.40431891  .00000004  00000+0  12264-4 0  9996
2 60099  53.1604 221.4865 0001217  99.2592 260.8546 15.30189497 55154
STARLINK-31996          
1 60100U 24117K   25160.50362691  .00000381  00000+0  24989-4 0  9995
2 60100  53.1601 225.8177 0001057  95.6748 264.4374 15.30197052 55068
STARLINK-31999          
1 60101U 24117L   25160.41837516  .00000163  00000+0  17617-4 0  9997
2 60101  53.1597 226.7107 0001060  80.2233 279.8887 15.30196828 55046
STARLINK-31954          
1 60102U 24117M   25160.47736029 -.00000318  00000+0  13691-5 0  9993
2 60102  53.1595 226.3678 0001073  81.7491 278.3631 15.30193667 55050
STARLINK-32013          
1 60103U 24117N   25160.47419356 -.00000240  00000+0  40356-5 0  9997
2 60103  53.1598 226.3474 0001120  77.4196 282.6930 15.30193324 55055
STARLINK-32009          
1 60104U 24117P   25161.46657955 -.00000713  00000+0 -11943-4 0  9992
2 60104  53.1592 221.8510 0001116  94.6883 265.4245 15.30186640 55219
STARLINK-32018          
1 60105U 24117Q   25161.44441890  .00000888  00000+0  42105-4 0  9995
2 60105  53.1596 221.7377 0001111  80.6719 279.4407 15.30186491 55222
STARLINK-32045          
1 60106U 24117R   25160.46786263  .00000823  00000+0  39909-4 0  9990
2 60106  53.1583 226.3076 0000971  73.0406 287.0701 15.30194151 55053
STARLINK-32035          
1 60107U 24117S   25161.56449157  .00000729  00000+0  36731-4 0  9996
2 60107  53.1590 221.0642 0001260  79.4048 280.7094 15.30191626 55179
STARLINK-32042          
1 60108U 24117T   25160.57527228  .00000026  00000+0  13018-4 0  9996
2 60108  53.1597 225.5532 0001334  89.6397 270.4756 15.30191927 55070
STARLINK-32040          
1 60109U 24117U   25160.58161626 -.00000352  00000+0  25627-6 0  9998
2 60109  53.1593 225.5943 0001877  98.0816 262.0398 15.30184374 55072
STARLINK-32001          
1 60110U 24117V   25161.48018701  .00000501  00000+0  29057-4 0  9999
2 60110  53.1600 221.2469 0001178  87.3797 272.7339 15.30184054 55160
STARLINK-32015          
1 60111U 24117W   25161.53916391  .00001183  00000+0  52086-4 0  9993
2 60111  53.1596 220.9021 0001250  88.3928 271.7216 15.30192921 55078
STARLINK-32024          
1 60112U 24117X   25161.55183049  .00000796  00000+0  39017-4 0  9990
2 60112  53.1593 220.9814 0001167  92.8747 267.2388 15.30190376 55197
STARLINK-11201 [DTC]    
1 60113U 24118A   25161.27799350 -.00001490  00000+0 -74498-5 0  9996
2 60113  53.1588 124.4726 0001072  85.3044 274.8096 15.69696417 56093
STARLINK-11198 [DTC]    
1 60114U 24118B   25161.27308485 -.00000995  00000+0 -33560-5 0  9996
2 60114  53.1602 124.4402 0001313  88.3240 271.7929 15.69703461 56089
STARLINK-11112 [DTC]    
1 60115U 24118C   25161.26818455 -.00000909  00000+0 -26456-5 0  9990
2 60115  53.1599 124.4065 0001231  79.9698 280.1459 15.69703405 56307
STARLINK-11210 [DTC]    
1 60116U 24118D   25160.88125419 -.00001516  00000+0 -76616-5 0  9997
2 60116  53.1573 126.2580 0001131  87.1849 272.9298 15.69703291 55144
STARLINK-11203 [DTC]    
1 60117U 24118E   25161.19469236  .00004597  00000+0  42764-4 0  9997
2 60117  53.1576 124.6552 0001155  79.2461 280.8687 15.69718010 56244
STARLINK-11177 [DTC]    
1 60118U 24118F   25161.31713289  .00010678  00000+0  93095-4 0  9992
2 60118  53.1605 123.9971 0001986 119.0411 241.0806 15.69655634 56261
STARLINK-11127 [DTC]    
1 60119U 24118G   25159.65682475 -.00002124  00000+0 -12678-4 0  9996
2 60119  53.1594 132.1228 0001077  80.6933 279.4207 15.69703216 54953
STARLINK-11164 [DTC]    
1 60120U 24118H   25161.17997677  .00000214  00000+0  66204-5 0  9992
2 60120  53.1598 124.5568 0000965 100.1065 260.0061 15.69705897 56302
STARLINK-11119 [DTC]    
1 60121U 24118J   25160.91058665  .00011943  00000+0  10326-3 0  9992
2 60121  53.1576 125.7135 0001201 322.4615  37.6318 15.69717236 55151
STARLINK-11157 [DTC]    
1 60122U 24118K   25160.21512960 -.00000656  00000+0 -55182-6 0  9992
2 60122  53.1581 129.1998 0001302  78.2451 281.8713 15.69703728 55040
STARLINK-11162 [DTC]    
1 60123U 24118L   25161.16034759 -.00006343  00000+0 -47539-4 0  9997
2 60123  53.1568 124.4255 0000940  89.0209 271.0917 15.69711801 55912
STARLINK-11161 [DTC]    
1 60124U 24118M   25160.90087888 -.00001458  00000+0 -71833-5 0  9997
2 60124  53.1588 126.3836 0001141  90.8032 269.3117 15.69704562 55142
STARLINK-11160 [DTC]    
1 60125U 24118N   25160.92039468  .00000293  00000+0  72774-5 0  9990
2 60125  53.1591 125.7786 0001322  76.2010 283.9155 15.69702161 55157
STARLINK-31846          
1 60126U 24118P   25161.43704228  .00000258  00000+0  20846-4 0  9994
2 60126  53.1594 211.2792 0001094  85.1966 274.9159 15.30194138 55122
STARLINK-31840          
1 60127U 24118Q   25161.44338112 -.00000431  00000+0 -24233-5 0  9991
2 60127  53.1597 211.3219 0001336  89.9122 270.2032 15.30189474 55054
STARLINK-31813          
1 60128U 24118R   25161.44021346 -.00000310  00000+0  16655-5 0  9994
2 60128  53.1594 211.3012 0001236  94.8873 265.2269 15.30190282 55055
STARLINK-31845          
1 60129U 24118S   25160.52315991 -.00000149  00000+0  70987-5 0  9993
2 60129  53.1596 213.3928 0001027  92.7587 267.3531 15.30193796 53903
STARLINK-31838          
1 60130U 24118T   25160.53530087 -.00000408  00000+0 -16269-5 0  9993
2 60130  53.1599 215.6028 0001983  86.2451 273.8777 15.30194035 53870
STARLINK-31785          
1 60131U 24118U   25160.45310593 -.00000318  00000+0  13753-5 0  9997
2 60131  53.1594 215.8023 0001065  90.8975 269.2148 15.30190773 53861
STARLINK-31792          
1 60132U 24118V   25161.42068116  .00000036  00000+0  13358-4 0  9993
2 60132  53.1595 209.0020 0001161  83.3803 276.7330 15.30189693 55080
STARLINK-32043          
1 60135U 24120A   25161.36936796 -.00000420  00000+0 -20412-5 0  9999
2 60135  53.1596 144.7597 0001175  81.8594 278.2540 15.30191446 54542
STARLINK-32112          
1 60136U 24120B   25160.94382266  .00000216  00000+0  19426-4 0  9993
2 60136  53.1605 147.0837 0001332  92.1442 267.9711 15.30183511 54694
STARLINK-32050          
1 60137U 24120C   25161.34204696 -.00000855  00000+0 -16755-4 0  9992
2 60137  53.1597 145.3037 0001290  83.7780 276.3368 15.30184439 54379
STARLINK-32025          
1 60138U 24120D   25161.35248771  .00000150  00000+0  17202-4 0  9990
2 60138  53.1593 144.6534 0001044  76.6437 283.4680 15.30192822 54491
STARLINK-31867          
1 60139U 24120E   25161.33043574 -.00001067  00000+0 -23925-4 0  9992
2 60139  53.1598 145.2276 0001290  89.3993 270.7156 15.30191205 54534
STARLINK-31694          
1 60140U 24120F   25160.35387986 -.00000719  00000+0 -12148-4 0  9991
2 60140  53.1601 149.7988 0001270  87.6038 272.5108 15.30187899 54608
STARLINK-32036          
1 60141U 24120G   25160.35283264  .00001812  00000+0  73325-4 0  9993
2 60141  53.1597 149.7938 0001100  89.5545 270.5581 15.30185977 54602
STARLINK-32031          
1 60142U 24120H   25160.34649381 -.00000710  00000+0 -11837-4 0  9997
2 60142  53.1601 149.7528 0001269  90.3945 269.7202 15.30188262 54604
STARLINK-32027          
1 60143U 24120J   25161.34826062 -.00001091  00000+0 -24729-4 0  9999
2 60143  53.1598 144.5883 0001309  90.1732 269.9419 15.30180732 54767
STARLINK-32033          
1 60144U 24120K   25160.34332542 -.00000670  00000+0 -10506-4 0  9994
2 60144  53.1596 149.7306 0001215  84.7359 275.3781 15.30190843 54524
